NORAD_CAT_ID,OBJECT_NAME,OBJECT_TYPE,EPOCH,MEAN_MOTION,ECCENTRICITY,INCLINATION,RA_OF_ASC_NODE,ARG_OF_PERICENTER,MEAN_ANOMALY,BSTAR,MEAN_MOTION_DOT,MEAN_MOTION_DDOT,TLE_LINE0,TLE_LINE1,TLE_LINE2,SEMIMAJOR_AXIS,PERIOD,APOGEE,PERIGEE,DECAYED
53797.0,STARLINK-4723,PAYLOAD,2024-06-02 12:29:07,15.08840675,0.0001263,53.2186,289.9641,93.0165,267.0971,3.6006e-05,2.85e-06,0.0,0 STARLINK-4723,1 53797U 22111AA  24154.52023144  .00000285  00000-0  36006-4 0  9999,2 53797  53.2186 289.9641 0001263  93.0165 267.0971 15.08840675 96284,6917.878,95.438,540.617,538.87,0.0
53797.0,STARLINK-4723,PAYLOAD,2024-06-02 18:50:40,15.08837928,0.0001289,53.2193,288.7754,93.7917,266.3222,8.0684e-06,-1.59e-06,0.0,0 STARLINK-4723,1 53797U 22111AA  24154.78519423 -.00000159  00000-0  80684-5 0  9990,2 53797  53.2193 288.7754 0001289  93.7917 266.3222 15.08837928 95539,6917.887,95.438,540.643,538.86,0.0
53797.0,STARLINK-4723,PAYLOAD,2024-06-03 12:19:55,15.08837559,0.0001216,53.2188,285.5041,92.8044,267.3087,3.0184e-05,1.93e-06,0.0,0 STARLINK-4723,1 53797U 22111AA  24155.51383459  .00000193  00000-0  30184-4 0  9996,2 53797  53.2188 285.5041 0001216  92.8044 267.3087 15.08837559 96438,6917.888,95.438,540.594,538.912,0.0
53797.0,STARLINK-4723,PAYLOAD,2024-06-03 18:41:28,15.08836799,0.0001223,53.2189,284.3156,90.8909,269.2223,2.0781e-06,-2.55e-06,0.0,0 STARLINK-4723,1 53797U 22111AA  24155.77879666 -.00000255  00000-0  20781-5 0  9997,2 53797  53.2189 284.3156 0001223  90.8909 269.2223 15.08836799 96471,6917.89,95.438,540.601,538.909,0.0
53797.0,STARLINK-4723,PAYLOAD,2024-06-04 01:03:00,15.08839329,0.0001249,53.2192,283.1263,91.306,268.8075,2.0104e-05,3.2e-07,0.0,0 STARLINK-4723,1 53797U 22111AA  24156.04375463  .00000032  00000-0  20104-4 0  9994,2 53797  53.2192 283.1263 0001249  91.3060 268.8075 15.08839329 95722,6917.882,95.438,540.611,538.883,0.0
53797.0,STARLINK-4723,PAYLOAD,2024-06-04 08:59:56,15.0883665,0.0001258,53.219,281.6399,92.4713,267.6423,3.6423e-05,2.92e-06,0.0,0 STARLINK-4723,1 53797U 22111AA  24156.37495597  .00000292  00000-0  36423-4 0  9990,2 53797  53.2190 281.6399 0001258  92.4713 267.6423 15.08836650 96561,6917.891,95.438,540.626,538.885,0.0
53797.0,STARLINK-4723,PAYLOAD,2024-06-04 15:21:28,15.0883947,0.0001304,53.2186,280.4508,92.7959,267.3182,5.7346e-05,6.25e-06,0.0,0 STARLINK-4723,1 53797U 22111AA  24156.63991409  .00000625  00000-0  57346-4 0  9999,2 53797  53.2186 280.4508 0001304  92.7959 267.3182 15.08839470 96609,6917.882,95.438,540.649,538.845,0.0
53797.0,STARLINK-4723,PAYLOAD,2024-06-05 12:01:30,15.08823456,0.0001224,53.2155,276.5858,97.238,262.8751,0.0001432,1.991e-05,0.0,0 STARLINK-4723,1 53797U 22111AA  24157.50104211  .00001991  00000-0  14320-3 0  9994,2 53797  53.2155 276.5858 0001224  97.2380 262.8751 15.08823456 95943,6917.931,95.439,540.643,538.949,0.0
53797.0,STARLINK-4723,PAYLOAD,2024-06-05 15:12:16,15.08832485,0.0001169,53.216,275.9909,90.1665,269.9461,4.3595e-05,4.06e-06,0.0,0 STARLINK-4723,1 53797U 22111AA  24157.63352160  .00000406  00000-0  43595-4 0  9993,2 53797  53.2160 275.9909 0001169  90.1665 269.9461 15.08832485 96753,6917.903,95.438,540.577,538.96,0.0
53797.0,STARLINK-4723,PAYLOAD,2024-06-05 16:47:39,15.0883457,0.0001219,53.2165,275.693,86.4169,273.6963,5.5642e-05,5.98e-06,0.0,0 STARLINK-4723,1 53797U 22111AA  24157.69976027  .00000598  00000-0  55642-4 0  9991,2 53797  53.2165 275.6930 0001219  86.4169 273.6963 15.08834570 96769,6917.897,95.438,540.605,538.919,0.0
53797.0,STARLINK-4723,PAYLOAD,2024-06-06 00:44:34,15.0883908,0.0001341,53.2172,274.2061,89.8666,270.248,4.6804e-05,4.57e-06,0.0,0 STARLINK-4723,1 53797U 22111AA  24158.03095834  .00000457  00000-0  46804-4 0  9992,2 53797  53.2172 274.2061 0001341  89.8666 270.2480 15.08839080 96029,6917.883,95.438,540.676,538.821,0.0
53797.0,STARLINK-4723,PAYLOAD,2024-06-06 11:52:16,15.08837275,0.000138,53.217,272.1244,89.8031,270.3119,2.7427e-05,1.49e-06,0.0,0 STARLINK-4723,1 53797U 22111AA  24158.49464106  .00000149  00000-0  27427-4 0  9992,2 53797  53.2170 272.1244 0001380  89.8031 270.3119 15.08837275 96884,6917.889,95.438,540.708,538.799,0.0
53797.0,STARLINK-4723,PAYLOAD,2024-06-06 16:38:26,15.08845855,0.0001642,53.2172,271.2327,93.5469,266.5711,-6.236e-05,-1.281e-05,0.0,0 STARLINK-4723,1 53797U 22111AA  24158.69335884 -.00001281  00000-0 -62360-4 0  9999,2 53797  53.2172 271.2327 0001642  93.5469 266.5711 15.08845855 96918,6917.862,95.437,540.863,538.592,0.0
53797.0,STARLINK-4723,PAYLOAD,2024-06-08 00:26:08,15.08844546,0.0001423,53.2138,265.2837,88.7352,271.3803,6.4927e-05,7.46e-06,0.0,0 STARLINK-4723,1 53797U 22111AA  24160.01815629  .00000746  00000-0  64927-4 0  9992,2 53797  53.2138 265.2837 0001423  88.7352 271.3803 15.08844546 96320,6917.866,95.437,540.716,538.747,0.0
53797.0,STARLINK-4723,PAYLOAD,2024-06-08 13:09:14,15.08838257,0.0001487,53.2145,262.9042,92.8628,267.2534,2.7343e-05,1.47e-06,0.0,0 STARLINK-4723,1 53797U 22111AA  24160.54808126  .00000147  00000-0  27343-4 0  9990,2 53797  53.2145 262.9042 0001487  92.8628 267.2534 15.08838257 97195,6917.886,95.438,540.779,538.722,0.0
53797.0,STARLINK-4723,PAYLOAD,2024-06-09 11:24:37,15.08843684,0.0001398,53.2165,258.7401,97.4397,262.6754,1.7928e-05,-3e-08,0.0,0 STARLINK-4723,1 53797U 22111AA  24161.47543888 -.00000003  00000-0  17928-4 0  9994,2 53797  53.2165 258.7401 0001398  97.4397 262.6754 15.08843684 97333,6917.869,95.437,540.701,538.767,0.0
53797.0,STARLINK-4723,PAYLOAD,2024-06-09 14:35:23,15.08845929,0.000147,53.2158,258.1448,98.8497,261.2662,4.4693e-05,4.23e-06,0.0,0 STARLINK-4723,1 53797U 22111AA  24161.60791605  .00000423  00000-0  44693-4 0  9995,2 53797  53.2158 258.1448 0001470  98.8497 261.2662 15.08845929 96568,6917.862,95.437,540.744,538.71,0.0
53797.0,STARLINK-4723,PAYLOAD,2024-06-10 12:50:48,15.08837417,0.0001427,53.2183,253.9839,99.9469,260.1684,1.1499e-05,-1.05e-06,0.0,0 STARLINK-4723,1 53797U 22111AA  24162.53528325 -.00000105  00000-0  11499-4 0  9991,2 53797  53.2183 253.9839 0001427  99.9469 260.1684 15.08837417 96707,6917.888,95.438,540.74,538.766,0.0
53797.0,STARLINK-4723,PAYLOAD,2024-06-11 12:41:35,15.08847468,0.0001303,53.2173,249.5236,102.6694,257.4444,1.2389e-05,-9.1e-07,0.0,0 STARLINK-4723,1 53797U 22111AA  24163.52887735 -.00000091  00000-0  12389-4 0  9997,2 53797  53.2173 249.5236 0001303 102.6694 257.4444 15.08847468 97647,6917.858,95.437,540.624,538.821,0.0
53797.0,STARLINK-4723,PAYLOAD,2024-06-12 06:10:51,15.08827129,0.0001341,53.2181,246.254,92.263,267.8516,-3.8228e-05,-8.96e-06,0.0,0 STARLINK-4723,1 53797U 22111AA  24164.25753493 -.00000896  00000-0 -38228-4 0  9995,2 53797  53.2181 246.2540 0001341  92.2630 267.8516 15.08827129 96965,6917.92,95.438,540.712,538.857,0.0
53797.0,STARLINK-4723,PAYLOAD,2024-06-12 12:32:23,15.0883135,0.0001387,53.2185,245.0656,95.5745,264.5406,-2.392e-06,-3.26e-06,0.0,0 STARLINK-4723,1 53797U 22111AA  24164.52249254 -.00000326  00000-0 -23920-5 0  9992,2 53797  53.2185 245.0656 0001387  95.5745 264.5406 15.08831350 97792,6917.907,95.438,540.731,538.812,0.0
53797.0,STARLINK-4723,PAYLOAD,2024-06-13 12:23:10,15.08839942,0.0001387,53.2185,240.6045,89.2441,270.8711,-4.8905e-06,-3.66e-06,0.0,0 STARLINK-4723,1 53797U 22111AA  24165.51608847 -.00000366  00000-0 -48905-5 0  9993,2 53797  53.2185 240.6045 0001387  89.2441 270.8711 15.08839942 97152,6917.881,95.438,540.705,538.786,0.0
53797.0,STARLINK-4723,PAYLOAD,2024-06-13 15:33:56,15.08839585,0.0001351,53.2186,240.0099,88.778,271.3367,-5.2307e-06,-3.71e-06,0.0,0 STARLINK-4723,1 53797U 22111AA  24165.64856877 -.00000371  00000-0 -52307-5 0  9992,2 53797  53.2186 240.0099 0001351  88.7780 271.3367 15.08839585 97962,6917.882,95.438,540.681,538.812,0.0
53797.0,STARLINK-4723,PAYLOAD,2024-06-14 12:13:57,15.08839515,0.000125,53.2171,236.1426,89.4447,270.6688,7.6986e-05,9.38e-06,0.0,0 STARLINK-4723,1 53797U 22111AA  24166.50968832  .00000938  00000-0  76986-4 0  9998,2 53797  53.2171 236.1426 0001250  89.4447 270.6688 15.08839515 98098,6917.882,95.438,540.612,538.882,0.0
53797.0,STARLINK-4723,PAYLOAD,2024-06-15 12:04:44,15.088391,0.0001302,53.2166,231.6826,85.3064,274.8077,4.5136e-05,4.31e-06,0.0,0 STARLINK-4723,1 53797U 22111AA  24167.50328929  .00000431  00000-0  45136-4 0  9997,2 53797  53.2166 231.6826 0001302  85.3064 274.8077 15.08839100 97451,6917.883,95.438,540.649,538.847,0.0
53797.0,STARLINK-4723,PAYLOAD,2024-06-15 21:37:02,15.08840148,0.0001306,53.2166,229.8983,86.342,273.7721,4.8157e-05,4.79e-06,0.0,0 STARLINK-4723,1 53797U 22111AA  24167.90072835  .00000479  00000-0  48157-4 0  9991,2 53797  53.2166 229.8983 0001306  86.3420 273.7721 15.08840148 98308,6917.88,95.438,540.648,538.841,0.0
53797.0,STARLINK-4723,PAYLOAD,2024-06-16 10:20:07,15.08841536,0.0001319,53.2168,227.5189,88.2111,271.9032,3.3245e-05,2.41e-06,0.0,0 STARLINK-4723,1 53797U 22111AA  24168.43064751  .00000241  00000-0  33245-4 0  9997,2 53797  53.2168 227.5189 0001319  88.2111 271.9032 15.08841536 98380,6917.876,95.437,540.653,538.828,0.0
53797.0,STARLINK-4723,PAYLOAD,2024-06-16 21:27:50,15.08837816,0.0001267,53.2165,225.4373,87.9043,272.2094,8.1253e-06,-1.59e-06,0.0,0 STARLINK-4723,1 53797U 22111AA  24168.89433048 -.00000159  00000-0  81253-5 0  9998,2 53797  53.2165 225.4373 0001267  87.9043 272.2094 15.08837816 97669,6917.887,95.438,540.629,538.876,0.0
53797.0,STARLINK-4723,PAYLOAD,2024-06-17 10:10:55,15.0884143,0.0001301,53.2168,223.0578,92.9409,267.1733,4.6758e-05,4.56e-06,0.0,0 STARLINK-4723,1 53797U 22111AA  24169.42424798  .00000456  00000-0  46758-4 0  9999,2 53797  53.2168 223.0578 0001301  92.9409 267.1733 15.08841430 98531,6917.876,95.437,540.641,538.841,0.0
53797.0,STARLINK-4723,PAYLOAD,2024-06-18 03:40:09,15.08839198,0.0001307,53.2162,219.7869,92.5003,267.6139,4.4439e-06,-2.17e-06,0.0,0 STARLINK-4723,1 53797U 22111AA  24170.15288983 -.00000217  00000-0  44439-5 0  9996,2 53797  53.2162 219.7869 0001307  92.5003 267.6139 15.08839198 97859,6917.883,95.438,540.652,538.844,0.0
